MEASAT-3B               
1 40147U 14054B   20109.57634918 -.00000255  00000-0  00000-0 0  9998
2 40147   0.0412  19.1401 0002356   9.8919 117.0969  1.00271687 20347
LUCH (OLYMP)            
1 40258U 14058A   20109.67012241  .00000117  00000-0  00000+0 0  9990
2 40258   0.0321 316.9948 0000885  58.3797  94.5948  1.00273066 20373
HIMAWARI-8              
1 40267U 14060A   20109.50032292 -.00000289  00000-0  00000-0 0  9995
2 40267   0.0338 114.7412 0001056 297.3256 115.7798  1.00272128 20194
IRNSS-1C                
1 40269U 14061A   20109.54976807 -.00000172  00000-0  00000-0 0  9992
2 40269   1.8712 181.7888 0017342  11.7766 294.4358  1.00268771 20119
INTELSAT 30 (IS-30)     
1 40271U 14062A   20109.56904769 -.00000163  00000-0  00000-0 0  9996
2 40271   0.0193 249.6008 0001618 258.9831 168.3447  1.00269400 20063
ARSAT 1                 
1 40272U 14062B   20109.52972142 -.00000273  00000-0  00000-0 0  9995
2 40272   0.0207 244.8926 0001347 151.6722 289.4158  1.00274288 20045
EXPRESS-AM6             
1 40277U 14064A   20109.48278851  .00000085  00000-0  00000-0 0  9993
2 40277   0.0354 291.3227 0000245 194.5911 307.9233  1.00270687 19009
GSAT-16                 
1 40332U 14078A   20109.48322469  .00000071  00000-0  00000-0 0  9990
2 40332   0.0572 104.0777 0006277 336.6849 355.3203  1.00271884 19557
DIRECTV 14              
1 40333U 14078B   20109.52422556 -.00000138  00000-0  00000-0 0  9999
2 40333   0.0304  60.3639 0000644 353.2572 242.9515  1.00272491 19565
YAMAL 401               
1 40345U 14082A   20109.49020355 -.00000243  00000-0  00000-0 0  9991
2 40345   0.0183 196.6889 0001241 252.2979  24.4987  1.00276830 19350
ASTRA 2G                
1 40364U 14089A   20109.31021448  .00000136  00000-0  00000-0 0  9994
2 40364   0.0156  73.3560 0004682 337.9340 295.4870  1.00273980 19391
FENGYUN 2G              
1 40367U 14090A   20109.56391789 -.00000313  00000-0  00000-0 0  9992
2 40367   1.9411  95.4053 0003072 339.2074  75.0975  1.00271773 19476
MUOS-3                  
1 40374U 15002A   20109.39736337 -.00000146  00000-0  00000+0 0  9990
2 40374   2.8823 345.6375 0052548 175.5679 173.3030  1.00270583 19250
INMARSAT 5-F2           
1 40384U 15005A   20109.46124125 -.00000298  00000-0  00000-0 0  9997
2 40384   0.0183 214.5325 0000498 271.6772 191.8544  1.00268130 18426
ABS-3A                  
1 40424U 15010A   20109.32809807 -.00000040  00000-0  00000+0 0  9994
2 40424   0.0110 233.3527 0002012  87.4895   1.2095  1.00273780 18823
EUTELSAT 115 WEST B     
1 40425U 15010B   20109.58897729 -.00000038  00000-0  00000-0 0  9991
2 40425   0.0111  84.4295 0000241 211.1350   8.7432  1.00270987 18830
EXPRESS-AM7             
1 40505U 15012A   20109.55196657  .00000137  00000-0  10027+1 0  9990
2 40505   0.0081 158.4943 0003171 221.1563  66.1544  1.00273325 18795
IRNSS-1D                
1 40547U 15018A   20107.71992846 -.00000310  00000-0  00000-0 0  9996
2 40547  28.5994 278.2942 0020581 177.5199 120.3831  1.00270896 18402
BEIDOU 17               
1 40549U 15019A   20105.32849089 -.00000155  00000-0  00000+0 0  9990
2 40549  53.1494 321.9379 0036874 186.7644 264.3370  1.00300362 18478
THOR 7                  
1 40613U 15022A   20109.37271650 -.00000022  00000-0  00000-0 0  9992
2 40613   0.0190 150.5027 0002570 239.8139 310.1485  1.00271284 18258
TURKMENALEM52E/MONACOSAT
1 40617U 15023A   20109.48261404  .00000090  00000-0  00000-0 0  9999
2 40617   0.0357  76.3113 0001862 334.1644  22.3132  1.00273591 18266
DIRECTV 15              
1 40663U 15026A   20109.45616873 -.00000117  00000-0  00000+0 0  9994
2 40663   0.0204 123.2594 0000313  87.6859  57.4609  1.00274367 17967
SKY MEXICO-1            
1 40664U 15026B   20109.50847771 -.00000247  00000-0  00000-0 0  9999
2 40664   0.0220 118.1434 0002580 288.2732 264.9227  1.00272938 17973
METEOSAT-11 (MSG-4)     
1 40732U 15034A   20109.32862149 -.00000018  00000-0  00000+0 0  9995
2 40732   0.4836 218.1705 0000589 244.9834 221.7276  1.00273626 17461
STAR ONE C4             
1 40733U 15034B   20109.53007036 -.00000278  00000-0  00000-0 0  9994
2 40733   0.0114  72.6070 0002419 312.5016 302.8136  1.00270521 17459
WGS F7 (USA 263)        
1 40746U 15036A   20109.56037711  .00000004  00000-0  00000-0 0  9992
2 40746   0.0166 252.9992 0000256 211.7721 119.0783  1.00271944 17317
INTELSAT 34 (IS-34)     
1 40874U 15039A   20109.46115400 -.00000298  00000-0  00000-0 0  9994
2 40874   0.0186 223.0928 0000533  19.7649  74.6920  1.00269807 17103
EUTELSAT 8 WEST B       
1 40875U 15039B   20109.39884638 -.00000079  00000-0  00000+0 0  9999
2 40875   0.0698   8.0938 0003983  48.0841 286.3759  1.00271675 17114
GSAT-6                  
1 40880U 15041A   20109.48863331 -.00000170  00000-0  00000-0 0  9998
2 40880   0.0563 125.9789 0004641 172.4613 166.6499  1.00272702 17073
INMARSAT 5-F3           
1 40882U 15042A   20109.54351130  .00000036  00000-0  00000-0 0  9997
2 40882   0.0185 215.2894 0000607 307.2138  59.8627  1.00266608 17000
MUOS-4                  
1 40887U 15044A   20109.48732477 -.00000110  00000-0  00000-0 0  9998
2 40887   3.0255 342.3316 0057840   2.2733 112.8783  1.00272709 17003
TJS-1                   
1 40892U 15046A   20109.62176593 -.00000169  00000-0  10000-3 0  9991
2 40892   0.0425  54.7492 0004381 322.3266 208.9152  1.00274217 16982
EXPRESS-AM8             
1 40895U 15048A   20109.54302603 -.00000124  00000-0  00000+0 0  9996
2 40895   0.0201 299.5305 0000803 166.0480 283.0177  1.00272936 16814
BEIDOU 20               
1 40938U 15053A   20109.21613721 -.00000126  00000-0  00000-0 0  9993
2 40938  52.7070 284.9085 0048301 185.1958 270.1782  1.00285979 16797
SKY MUSTER (NBN1A)      
1 40940U 15054A   20109.44077309 -.00000292  00000-0  00000-0 0  9992
2 40940   0.0125 249.8806 0001621 144.1288 111.9129  1.00272777 16703
ARSAT 2                 
1 40941U 15054B   20109.50068451 -.00000238  00000-0  00000-0 0  9998
2 40941   0.0145 233.2535 0001521 165.3323 267.7128  1.00273889 16755
MORELOS 3               
1 40946U 15056A   20109.58970635 -.00000063  00000-0  00000-0 0  9995
2 40946   4.9149 328.4925 0001399 351.1422 346.7071  1.00272306 16719
APSTAR 9                
1 40982U 15059A   20109.53174622 -.00000279  00000-0  00000-0 0  9994
2 40982   0.0619  90.0330 0001746   3.5115  86.9940  1.00271915 16569
TURKSAT 4B              
1 40984U 15060A   20109.48217786  .00000102  00000-0  00000-0 0  9995
2 40984   0.0166 139.8171 0002130 245.7189  45.1048  1.00269492 16543
CHINASAT 2C (ZX 2C)     
1 41021U 15063A   20105.55952029 -.00000342  00000-0  00000-0 0  9998
2 41021   0.0383  14.7127 0002402  55.4991  77.7602  1.00267896 16406
GSAT-15                 
1 41028U 15065A   20109.49090146 -.00000272  00000-0  00000-0 0  9999
2 41028   0.0817  93.7422 0002907 327.3099  56.2530  1.00271853 16253
BADR-7 (ARABSAT-6B)     
1 41029U 15065B   20109.31021448  .00000131  00000-0  00000+0 0  9992
2 41029   0.0488 260.8058 0002508 345.3513  98.4122  1.00270737 16343
LAOSAT 1                
1 41034U 15067A   20109.49788031 -.00000356  00000-0  00000-0 0  9998
2 41034   0.0238 345.7572 0002037  18.8807 150.1746  1.00273016 16308
TELSTAR 12V             
1 41036U 15068A   20109.39745060 -.00000132  00000-0  00000+0 0  9996
2 41036   0.0166 185.9099 0002178 203.5516 305.5905  1.00272146 16153
CHINASAT 1C (ZX 1C)     
1 41103U 15073A   20109.59146728 -.00000162  00000-0  00000-0 0  9999
2 41103   1.4763  92.9406 0002716 291.0497 117.5681  1.00272056 16100
ELEKTRO-L 2             
1 41105U 15074A   20109.59146728 -.00000109  00000-0  00000-0 0  9993
2 41105   1.0576  98.0850 0002756 323.3190  74.6958  1.00270862 15958
COSMOS 2513             
1 41121U 15075A   20109.48828436 -.00000151  00000-0  00000-0 0  9990
2 41121   0.0530 102.4175 0003752 315.9761  44.7127  1.00268613 15961
EXPRESS-AMU1            
1 41191U 15082A   20109.47947354  .00000142  00000-0  00000-0 0  9994
2 41191   0.0207 244.3244 0002697 130.8627  40.5761  1.00269544 15708
GAOFEN 4                
1 41194U 15083A   20109.65507471 -.00000348  00000-0  00000-0 0  9999
2 41194   0.0538  80.6420 0004746  80.1847  27.9077  1.00270642 15927
BELINTERSAT-1           
1 41238U 16001A   20109.48252681  .00000093  00000-0  00000-0 0  9996
2 41238   0.0508  92.9633 0001090  11.5883 327.7055  1.00270549 15688
IRNSS-1E                
1 41241U 16003A   20106.91017860 -.00000286  00000-0  00000+0 0  9999
2 41241  29.0821  97.2598 0019171 187.7019 359.0354  1.00272891 15609
EUTELSAT 9B             
1 41310U 16005A   20109.33045344  .00000048  00000-0  00000-0 0  9991
2 41310   0.1062  83.0307 0003927 243.6720   8.1415  1.00273411 15549
SES-9                   
1 41380U 16013A   20109.36091098 -.00000359  00000-0  00000-0 0  9993
2 41380   0.0197 263.2422 0002184 160.1034  21.7950  1.00272082 14861
EUTELSAT 65 WEST A      
1 41382U 16014A   20109.53102995 -.00000289  00000-0  00000-0 0  9996
2 41382   0.0541  20.1673 0001797  13.3061 299.5830  1.00274068 14972
IRNSS-1F                
1 41384U 16015A   20109.47868844  .00000145  00000-0  00000-0 0  9994
2 41384   2.2440 222.5148 0023718 183.7824   5.4911  1.00270735 15126
BEIDOU IGSO-6           
1 41434U 16021A   20109.63430624 -.00000149  00000-0  00000-0 0  9991
2 41434  56.9578  61.1493 0038295 212.5808 258.1037  1.00271169 14924
IRNSS-1G                
1 41469U 16027A   20109.49805479 -.00000349  00000-0  00000-0 0  9995
2 41469   2.2679 225.4334 0006101 208.4700  82.0128  1.00273724 14624
JCSAT-2B                
1 41471U 16028A   20109.52686991 -.00000179  00000-0  00000-0 0  9990
2 41471   0.0208 218.8568 0001866 173.3745 158.5444  1.00268969 14544
THAICOM 8               
1 41552U 16031A   20109.42340962 -.00000135  00000-0  00000-0 0  9990
2 41552   0.0500  41.4037 0005876 359.9844  36.5283  1.00273480 14143
